{"type": "FeatureCollection", "features": [ {"type": "Feature", "properties": {"norad_id": 37834, "name": "INTELSAT 18 (IS-18)", "group": "intelsat", "lat": 0.042135656529588256, "lon": 56.466578046654845, "alt_km": 35794.71265205533, "timestamp": "2025-12-04T10:51:49.773851+00:00", "meta": {"OBJECT_NAME": "INTELSAT 18 (IS-18)", "OBJECT_ID": "2011-056A", "EPOCH": "2025-12-03T18:01:38.697312", "MEAN_MOTION": 1.00271033, "ECCENTRICITY": 0.00021013, "INCLINATION": 0.0165, "RA_OF_ASC_NODE": 322.052, "ARG_OF_PERICENTER": 292.2737, "MEAN_ANOMALY": 268.919, "EPHEMERIS_TYPE": 0, "CLASSIFICATION_TYPE": "U", "NORAD_CAT_ID": 37834, "ELEMENT_SET_NO": 999, "REV_AT_EPOCH": 5185, "BSTAR": 0, "MEAN_MOTION_DOT": 7e-07, "MEAN_MOTION_DDOT": 0}, "tle": {"line1": "1 37834U 11056A   25337.75114233  .00000070  00000+0  00000+0 0  9999", "line2": "2 37834   0.0165 322.0520 0002101 292.2737 268.9190  1.00271033 51850"}}, "geometry": {"type": "Point", "coordinates": [56.466578046654845, 0.042135656529588256]}}, {"type": "Feature", "properties": {"norad_id": 38098, "name": "INTELSAT 22 (IS-22)", "group": "intelsat", "lat": -0.013309185124562549, "lon": -51.41815091898257, "alt_km": 35781.64107699896, "timestamp": "2025-12-04T10:51:49.773863+00:00", "meta": {"OBJECT_NAME": "INTELSAT 22 (IS-22)", "OBJECT_ID": "2012-011A", "EPOCH": "2025-12-03T20:09:40.873824", "MEAN_MOTION": 1.0027102, "ECCENTRICITY": 0.00017171, "INCLINATION": 0.0039, "RA_OF_ASC_NODE": 1.7537, "ARG_OF_PERICENTER": 256.602, "MEAN_ANOMALY": 189.0931, "EPHEMERIS_TYPE": 0, "CLASSIFICATION_TYPE": "U", "NORAD_CAT_ID": 38098, "ELEMENT_SET_NO": 999, "REV_AT_EPOCH": 523, "BSTAR": 0, "MEAN_MOTION_DOT": -4.1e-07, "MEAN_MOTION_DDOT": 0}, "tle": {"line1": "1 38098U 12011A   25337.84005641 -.00000041  00000+0  00000+0 0  9995", "line2": "2 38098   0.0039   1.7537 0001717 256.6020 189.0931  1.00271020  5236"}}, "geometry": {"type": "Point", "coordinates": [-51.41815091898257, -0.013309185124562549]}}, {"type": "Feature", "properties": {"norad_id": 38356, "name": "INTELSAT 19 (IS-19)", "group": "intelsat", "lat": 0.03559528006168339, "lon": 42.49394287432029, "alt_km": 35798.52633306145, "timestamp": "2025-12-04T10:51:49.773876+00:00", "meta": {"OBJECT_NAME": "INTELSAT 19 (IS-19)", "OBJECT_ID": "2012-030A", "EPOCH": "2025-12-03T17:54:54.751392", "MEAN_MOTION": 1.0026956, "ECCENTRICITY": 0.00034388, "INCLINATION": 0.0103, "RA_OF_ASC_NODE": 319.4914, "ARG_OF_PERICENTER": 298.7434, "MEAN_ANOMALY": 249.3378, "EPHEMERIS_TYPE": 0, "CLASSIFICATION_TYPE": "U", "NORAD_CAT_ID": 38356, "ELEMENT_SET_NO": 999, "REV_AT_EPOCH": 4849, "BSTAR": 0, "MEAN_MOTION_DOT": -3.9e-07, "MEAN_MOTION_DDOT": 0}, "tle": {"line1": "1 38356U 12030A   25337.74646703 -.00000039  00000+0  00000+0 0  9999", "line2": "2 38356   0.0103 319.4914 0003438 298.7434 249.3378  1.00269560 48497"}}, "geometry": {"type": "Point", "coordinates": [42.49394287432029, 0.03559528006168339]}}, {"type": "Feature", "properties": {"norad_id": 38740, "name": "INTELSAT 20 (IS-20)", "group": "intelsat", "lat": -0.017966092702523587, "lon": -55.01711623146011, "alt_km": 35798.19336834442, "timestamp": "2025-12-04T10:51:49.773888+00:00", "meta": {"OBJECT_NAME": "INTELSAT 20 (IS-20)", "OBJECT_ID": "2012-043A", "EPOCH": "2025-12-03T21:56:38.683968", "MEAN_MOTION": 1.00263504, "ECCENTRICITY": 0.00041682, "INCLINATION": 0.0142, "RA_OF_ASC_NODE": 338.7056, "ARG_OF_PERICENTER": 201.9611, "MEAN_ANOMALY": 289.9875, "EPHEMERIS_TYPE": 0, "CLASSIFICATION_TYPE": "U", "NORAD_CAT_ID": 38740, "ELEMENT_SET_NO": 999, "REV_AT_EPOCH": 4879, "BSTAR": 0, "MEAN_MOTION_DOT": 0, "MEAN_MOTION_DDOT": 0}, "tle": {"line1": "1 38740U 12043A   25337.91433662  .00000000  00000+0  00000+0 0  9994", "line2": "2 38740   0.0142 338.7056 0004168 201.9611 289.9875  1.00263504 48799"}}, "geometry": {"type": "Point", "coordinates": [-55.01711623146011, -0.017966092702523587]}}, {"type": "Feature", "properties": {"norad_id": 38749, "name": "INTELSAT 21 (IS-21)", "group": "intelsat", "lat": -0.02363590820782515, "lon": 178.4282375866427, "alt_km": 35782.613819948936, "timestamp": "2025-12-04T10:51:49.773900+00:00", "meta": {"OBJECT_NAME": "INTELSAT 21 (IS-21)", "OBJECT_ID": "2012-045A", "EPOCH": "2025-12-03T08:20:36.826944", "MEAN_MOTION": 1.00269041, "ECCENTRICITY": 0.00024522, "INCLINATION": 0.0163, "RA_OF_ASC_NODE": 324.7378, "ARG_OF_PERICENTER": 278.7741, "MEAN_ANOMALY": 256.082, "EPHEMERIS_TYPE": 0, "CLASSIFICATION_TYPE": "U", "NORAD_CAT_ID": 38749, "ELEMENT_SET_NO": 999, "REV_AT_EPOCH": 4856, "BSTAR": 0, "MEAN_MOTION_DOT": -2.66e-06, "MEAN_MOTION_DDOT": 0}, "tle": {"line1": "1 38749U 12045A   25337.34764846 -.00000266  00000+0  00000+0 0  9998", "line2": "2 38749   0.0163 324.7378 0002452 278.7741 256.0820  1.00269041 48565"}}, "geometry": {"type": "Point", "coordinates": [178.4282375866427, -0.02363590820782515]}}, {"type": "Feature", "properties": {"norad_id": 38867, "name": "INTELSAT 23 (IS-23)", "group": "intelsat", "lat": 0.010669319921460162, "lon": -176.5573702830576, "alt_km": 35780.56471501085, "timestamp": "2025-12-04T10:51:49.773912+00:00", "meta": {"OBJECT_NAME": "INTELSAT 23 (IS-23)", "OBJECT_ID": "2012-057A", "EPOCH": "2025-12-03T16:55:43.010688", "MEAN_MOTION": 1.00269856, "ECCENTRICITY": 0.00017576, "INCLINATION": 0.0469, "RA_OF_ASC_NODE": 115.267, "ARG_OF_PERICENTER": 102.0721, "MEAN_ANOMALY": 56.377, "EPHEMERIS_TYPE": 0, "CLASSIFICATION_TYPE": "U", "NORAD_CAT_ID": 38867, "ELEMENT_SET_NO": 999, "REV_AT_EPOCH": 4799, "BSTAR": 0, "MEAN_MOTION_DOT": -2.67e-06, "MEAN_MOTION_DDOT": 0}, "tle": {"line1": "1 38867U 12057A   25337.70535892 -.00000267  00000+0  00000+0 0  9990", "line2": "2 38867   0.0469 115.2670 0001757 102.0721  56.3770  1.00269856 47992"}}, "geometry": {"type": "Point", "coordinates": [-176.5573702830576, 0.010669319921460162]}}, {"type": "Feature", "properties": {"norad_id": 39360, "name": "FM-6", "group": "intelsat", "lat": -0.002215803618097146, "lon": 120.27300332442573, "alt_km": 35779.49236039749, "timestamp": "2025-12-04T10:51:49.773924+00:00", "meta": {"OBJECT_NAME": "FM-6", "OBJECT_ID": "2013-058A", "EPOCH": "2025-12-03T16:37:37.244352", "MEAN_MOTION": 1.0027006, "ECCENTRICITY": 0.00027851, "INCLINATION": 0.0139, "RA_OF_ASC_NODE": 114.8388, "ARG_OF_PERICENTER": 58.195, "MEAN_ANOMALY": 32.9893, "EPHEMERIS_TYPE": 0, "CLASSIFICATION_TYPE": "U", "NORAD_CAT_ID": 39360, "ELEMENT_SET_NO": 999, "REV_AT_EPOCH": 4411, "BSTAR": 0, "MEAN_MOTION_DOT": 1e-08, "MEAN_MOTION_DDOT": 0}, "tle": {"line1": "1 39360U 13058A   25337.69279218  .00000001  00000+0  00000+0 0  9991", "line2": "2 39360   0.0139 114.8388 0002785  58.1950  32.9893  1.00270060 44119"}}, "geometry": {"type": "Point", "coordinates": [120.27300332442573, -0.002215803618097146]}}, {"type": "Feature", "properties": {"norad_id": 40271, "name": "INTELSAT 30 (IS-30)", "group": "intelsat", "lat": 0.015913190056556357, "lon": 141.416793385773, "alt_km": 35784.49588127168, "timestamp": "2025-12-04T10:51:49.773936+00:00", "meta": {"OBJECT_NAME": "INTELSAT 30 (IS-30)", "OBJECT_ID": "2014-062A", "EPOCH": "2025-12-03T19:56:38.900256", "MEAN_MOTION": 1.00269713, "ECCENTRICITY": 0.00011755, "INCLINATION": 0.0154, "RA_OF_ASC_NODE": 13.9325, "ARG_OF_PERICENTER": 63.6189, "MEAN_ANOMALY": 199.4713, "EPHEMERIS_TYPE": 0, "CLASSIFICATION_TYPE": "U", "NORAD_CAT_ID": 40271, "ELEMENT_SET_NO": 999, "REV_AT_EPOCH": 482, "BSTAR": 0, "MEAN_MOTION_DOT": -1.34e-06, "MEAN_MOTION_DDOT": 0}, "tle": {"line1": "1 40271U 14062A   25337.83100579 -.00000134  00000+0  00000+0 0  9997", "line2": "2 40271   0.0154  13.9325 0001175  63.6189 199.4713  1.00269713  4823"}}, "geometry": {"type": "Point", "coordinates": [141.416793385773, 0.015913190056556357]}}, {"type": "Feature", "properties": {"norad_id": 40333, "name": "DIRECTV 14", "group": "intelsat", "lat": 0.004895669991249382, "lon": 137.24486096535347, "alt_km": 35784.993351237295, "timestamp": "2025-12-04T10:51:49.773948+00:00", "meta": {"OBJECT_NAME": "DIRECTV 14", "OBJECT_ID": "2014-078B", "EPOCH": "2025-12-03T13:17:00.932928", "MEAN_MOTION": 1.00273104, "ECCENTRICITY": 5.997e-05, "INCLINATION": 0.0174, "RA_OF_ASC_NODE": 324.7711, "ARG_OF_PERICENTER": 245.1264, "MEAN_ANOMALY": 322.7814, "EPHEMERIS_TYPE": 0, "CLASSIFICATION_TYPE": "U", "NORAD_CAT_ID": 40333, "ELEMENT_SET_NO": 999, "REV_AT_EPOCH": 4008, "BSTAR": 0, "MEAN_MOTION_DOT": -1.08e-06, "MEAN_MOTION_DDOT": 0}, "tle": {"line1": "1 40333U 14078B   25337.55348302 -.00000108  00000+0  00000+0 0  9991", "line2": "2 40333   0.0174 324.7711 0000599 245.1264 322.7814  1.00273104 40086"}}, "geometry": {"type": "Point", "coordinates": [137.24486096535347, 0.004895669991249382]}}, {"type": "Feature", "properties": {"norad_id": 40663, "name": "DIRECTV 15", "group": "intelsat", "lat": 0.02679833479123978, "lon": 133.58167537379782, "alt_km": 35786.51648194234, "timestamp": "2025-12-04T10:51:49.773960+00:00", "meta": {"OBJECT_NAME": "DIRECTV 15", "OBJECT_ID": "2015-026A", "EPOCH": "2025-12-03T16:41:14.396928", "MEAN_MOTION": 1.00270168, "ECCENTRICITY": 4.608e-05, "INCLINATION": 0.0439, "RA_OF_ASC_NODE": 95.4072, "ARG_OF_PERICENTER": 127.1851, "MEAN_ANOMALY": 357.6265, "EPHEMERIS_TYPE": 0, "CLASSIFICATION_TYPE": "U", "NORAD_CAT_ID": 40663, "ELEMENT_SET_NO": 999, "REV_AT_EPOCH": 3850, "BSTAR": 0, "MEAN_MOTION_DOT": -8.5e-07, "MEAN_MOTION_DDOT": 0}, "tle": {"line1": "1 40663U 15026A   25337.69530552 -.00000085  00000+0  00000+0 0  9990", "line2": "2 40663   0.0439  95.4072 0000460 127.1851 357.6265  1.00270168 38504"}}, "geometry": {"type": "Point", "coordinates": [133.58167537379782, 0.02679833479123978]}}]}